{"type": "FeatureCollection", "features": [ {"type": "Feature", "properties": {"norad_id": 33698, "name": "FENGYUN 1C DEB", "group": "fengyun-1c-debris", "lat": 42.760900567047045, "lon": -67.8278096473853, "alt_km": 799.5795598269187, "timestamp": "2025-12-07T20:38:14.350496+00:00", "meta": {"OBJECT_NAME": "FENGYUN 1C DEB", "OBJECT_ID": "1999-025DGK", "EPOCH": "2025-12-07T03:56:13.081056", "MEAN_MOTION": 14.55692092, "ECCENTRICITY": 0.01372131, "INCLINATION": 99.6203, "RA_OF_ASC_NODE": 300.3952, "ARG_OF_PERICENTER": 234.4954, "MEAN_ANOMALY": 124.3376, "EPHEMERIS_TYPE": 0, "CLASSIFICATION_TYPE": "U", "NORAD_CAT_ID": 33698, "ELEMENT_SET_NO": 999, "REV_AT_EPOCH": 95555, "BSTAR": 0.00050945112, "MEAN_MOTION_DOT": 2.46e-05, "MEAN_MOTION_DDOT": 0}, "tle": {"line1": "1 33698U 99025DGK 25341.16404029  .00002460  00000+0  50945-3 0  9992", "line2": "2 33698  99.6203 300.3952 0137213 234.4954 124.3376 14.55692092955558"}}, "geometry": {"type": "Point", "coordinates": [-67.8278096473853, 42.760900567047045]}}, {"type": "Feature", "properties": {"norad_id": 33701, "name": "FENGYUN 1C DEB", "group": "fengyun-1c-debris", "lat": -26.105170285879165, "lon": -59.21770257707031, "alt_km": 954.5081325921847, "timestamp": "2025-12-07T20:38:14.350506+00:00", "meta": {"OBJECT_NAME": "FENGYUN 1C DEB", "OBJECT_ID": "1999-025DGN", "EPOCH": "2025-11-19T19:29:54.481632", "MEAN_MOTION": 14.02181122, "ECCENTRICITY": 0.01331995, "INCLINATION": 98.6598, "RA_OF_ASC_NODE": 279.346, "ARG_OF_PERICENTER": 252.9525, "MEAN_ANOMALY": 105.7013, "EPHEMERIS_TYPE": 0, "CLASSIFICATION_TYPE": "U", "NORAD_CAT_ID": 33701, "ELEMENT_SET_NO": 999, "REV_AT_EPOCH": 90184, "BSTAR": 0.0018411078, "MEAN_MOTION_DOT": 3.003e-05, "MEAN_MOTION_DDOT": 0}, "tle": {"line1": "1 33701U 99025DGN 25323.81243613  .00003003  00000+0  18411-2 0  9994", "line2": "2 33701  98.6598 279.3460 0133199 252.9525 105.7013 14.02181122901849"}}, "geometry": {"type": "Point", "coordinates": [-59.21770257707031, -26.105170285879165]}}, {"type": "Feature", "properties": {"norad_id": 33710, "name": "FENGYUN 1C DEB", "group": "fengyun-1c-debris", "lat": -28.005931314284485, "lon": -104.12493601608438, "alt_km": 832.2428526092899, "timestamp": "2025-12-07T20:38:14.350516+00:00", "meta": {"OBJECT_NAME": "FENGYUN 1C DEB", "OBJECT_ID": "1999-025DGX", "EPOCH": "2025-12-02T05:15:53.096256", "MEAN_MOTION": 14.11571356, "ECCENTRICITY": 0.0056132, "INCLINATION": 98.9804, "RA_OF_ASC_NODE": 75.0562, "ARG_OF_PERICENTER": 176.3436, "MEAN_ANOMALY": 183.8157, "EPHEMERIS_TYPE": 0, "CLASSIFICATION_TYPE": "U", "NORAD_CAT_ID": 33710, "ELEMENT_SET_NO": 999, "REV_AT_EPOCH": 67508, "BSTAR": 0.0015671, "MEAN_MOTION_DOT": 2.844e-05, "MEAN_MOTION_DDOT": 0}, "tle": {"line1": "1 33710U 99025DGX 25336.21936454  .00002844  00000+0  15671-2 0  9991", "line2": "2 33710  98.9804  75.0562 0056132 176.3436 183.8157 14.11571356675089"}}, "geometry": {"type": "Point", "coordinates": [-104.12493601608438, -28.005931314284485]}}, {"type": "Feature", "properties": {"norad_id": 33711, "name": "FENGYUN 1C DEB", "group": "fengyun-1c-debris", "lat": -4.054832688971867, "lon": -145.34919365906606, "alt_km": 931.3051497217584, "timestamp": "2025-12-07T20:38:14.350526+00:00", "meta": {"OBJECT_NAME": "FENGYUN 1C DEB", "OBJECT_ID": "1999-025DGY", "EPOCH": "2025-12-07T02:46:03.189216", "MEAN_MOTION": 14.00903966, "ECCENTRICITY": 0.00971113, "INCLINATION": 99.1838, "RA_OF_ASC_NODE": 34.5595, "ARG_OF_PERICENTER": 63.7149, "MEAN_ANOMALY": 326.3039, "EPHEMERIS_TYPE": 0, "CLASSIFICATION_TYPE": "U", "NORAD_CAT_ID": 33711, "ELEMENT_SET_NO": 999, "REV_AT_EPOCH": 91853, "BSTAR": 0.00087336553, "MEAN_MOTION_DOT": 1.316e-05, "MEAN_MOTION_DDOT": 0}, "tle": {"line1": "1 33711U 99025DGY 25341.11531469  .00001316  00000+0  87337-3 0  9996", "line2": "2 33711  99.1838  34.5595 0097111  63.7149 326.3039 14.00903966918535"}}, "geometry": {"type": "Point", "coordinates": [-145.34919365906606, -4.054832688971867]}}, {"type": "Feature", "properties": {"norad_id": 33716, "name": "FENGYUN 1C DEB", "group": "fengyun-1c-debris", "lat": -72.65016302676611, "lon": -62.67255557356488, "alt_km": 786.1639333412668, "timestamp": "2025-12-07T20:38:14.350536+00:00", "meta": {"OBJECT_NAME": "FENGYUN 1C DEB", "OBJECT_ID": "1999-025DHD", "EPOCH": "2025-12-06T13:08:11.221440", "MEAN_MOTION": 14.3265858, "ECCENTRICITY": 0.00939515, "INCLINATION": 98.8733, "RA_OF_ASC_NODE": 265.9821, "ARG_OF_PERICENTER": 16.0042, "MEAN_ANOMALY": 344.4074, "EPHEMERIS_TYPE": 0, "CLASSIFICATION_TYPE": "U", "NORAD_CAT_ID": 33716, "ELEMENT_SET_NO": 999, "REV_AT_EPOCH": 65069, "BSTAR": 0.00035266212, "MEAN_MOTION_DOT": 9.6e-06, "MEAN_MOTION_DDOT": 0}, "tle": {"line1": "1 33716U 99025DHD 25340.54735210  .00000960  00000+0  35266-3 0  9995", "line2": "2 33716  98.8733 265.9821 0093951  16.0042 344.4074 14.32658580650697"}}, "geometry": {"type": "Point", "coordinates": [-62.67255557356488, -72.65016302676611]}}, {"type": "Feature", "properties": {"norad_id": 33718, "name": "FENGYUN 1C DEB", "group": "fengyun-1c-debris", "lat": 80.18818015857636, "lon": -31.862534989406807, "alt_km": 891.5530567019605, "timestamp": "2025-12-07T20:38:14.350549+00:00", "meta": {"OBJECT_NAME": "FENGYUN 1C DEB", "OBJECT_ID": "1999-025DHF", "EPOCH": "2025-12-06T23:44:27.157344", "MEAN_MOTION": 14.08027981, "ECCENTRICITY": 0.00976837, "INCLINATION": 99.66, "RA_OF_ASC_NODE": 67.1933, "ARG_OF_PERICENTER": 335.8804, "MEAN_ANOMALY": 23.7805, "EPHEMERIS_TYPE": 0, "CLASSIFICATION_TYPE": "U", "NORAD_CAT_ID": 33718, "ELEMENT_SET_NO": 999, "REV_AT_EPOCH": 69105, "BSTAR": 0.0021413958, "MEAN_MOTION_DOT": 3.757e-05, "MEAN_MOTION_DDOT": 0}, "tle": {"line1": "1 33718U 99025DHF 25340.98920321  .00003757  00000+0  21414-2 0  9990", "line2": "2 33718  99.6600  67.1933 0097683 335.8804  23.7805 14.08027981691053"}}, "geometry": {"type": "Point", "coordinates": [-31.862534989406807, 80.18818015857636]}}, {"type": "Feature", "properties": {"norad_id": 33719, "name": "FENGYUN 1C DEB", "group": "fengyun-1c-debris", "lat": 51.77861690591855, "lon": 30.534692861443833, "alt_km": 792.1969503295131, "timestamp": "2025-12-07T20:38:14.350559+00:00", "meta": {"OBJECT_NAME": "FENGYUN 1C DEB", "OBJECT_ID": "1999-025DHG", "EPOCH": "2025-12-06T23:17:50.587296", "MEAN_MOTION": 14.23442154, "ECCENTRICITY": 0.0030697, "INCLINATION": 98.774, "RA_OF_ASC_NODE": 40.9579, "ARG_OF_PERICENTER": 96.394, "MEAN_ANOMALY": 82.6868, "EPHEMERIS_TYPE": 0, "CLASSIFICATION_TYPE": "U", "NORAD_CAT_ID": 33719, "ELEMENT_SET_NO": 999, "REV_AT_EPOCH": 91931, "BSTAR": 0.0018535568, "MEAN_MOTION_DOT": 4.188e-05, "MEAN_MOTION_DDOT": 0}, "tle": {"line1": "1 33719U 99025DHG 25340.97072439  .00004188  00000+0  18536-2 0  9998", "line2": "2 33719  98.7740  40.9579 0030697  96.3940  82.6868 14.23442154919311"}}, "geometry": {"type": "Point", "coordinates": [30.534692861443833, 51.77861690591855]}}, {"type": "Feature", "properties": {"norad_id": 33722, "name": "FENGYUN 1C DEB", "group": "fengyun-1c-debris", "lat": -9.347096403332273, "lon": -2.224383797531576, "alt_km": 812.7025554330494, "timestamp": "2025-12-07T20:38:14.350569+00:00", "meta": {"OBJECT_NAME": "FENGYUN 1C DEB", "OBJECT_ID": "1999-025DHK", "EPOCH": "2025-12-05T07:51:32.196672", "MEAN_MOTION": 14.21318721, "ECCENTRICITY": 0.01579882, "INCLINATION": 98.5736, "RA_OF_ASC_NODE": 353.8928, "ARG_OF_PERICENTER": 273.2558, "MEAN_ANOMALY": 85.0556, "EPHEMERIS_TYPE": 0, "CLASSIFICATION_TYPE": "U", "NORAD_CAT_ID": 33722, "ELEMENT_SET_NO": 999, "REV_AT_EPOCH": 92042, "BSTAR": 0.0013828169, "MEAN_MOTION_DOT": 3.379e-05, "MEAN_MOTION_DDOT": 0}, "tle": {"line1": "1 33722U 99025DHK 25339.32745598  .00003379  00000+0  13828-2 0  9992", "line2": "2 33722  98.5736 353.8928 0157988 273.2558  85.0556 14.21318721920421"}}, "geometry": {"type": "Point", "coordinates": [-2.224383797531576, -9.347096403332273]}}, {"type": "Feature", "properties": {"norad_id": 33723, "name": "FENGYUN 1C DEB", "group": "fengyun-1c-debris", "lat": -53.1247786468651, "lon": -130.09071184192317, "alt_km": 879.5739576012702, "timestamp": "2025-12-07T20:38:14.350579+00:00", "meta": {"OBJECT_NAME": "FENGYUN 1C DEB", "OBJECT_ID": "1999-025DHL", "EPOCH": "2025-12-06T11:33:11.056608", "MEAN_MOTION": 14.132294, "ECCENTRICITY": 0.00983, "INCLINATION": 99.1549, "RA_OF_ASC_NODE": 60.9133, "ARG_OF_PERICENTER": 348.5061, "MEAN_ANOMALY": 77.0859, "EPHEMERIS_TYPE": 0, "CLASSIFICATION_TYPE": "U", "NORAD_CAT_ID": 33723, "ELEMENT_SET_NO": 999, "REV_AT_EPOCH": 63535, "BSTAR": 0.0032867637, "MEAN_MOTION_DOT": 6.403e-05, "MEAN_MOTION_DDOT": 0}, "tle": {"line1": "1 33723U 99025DHL 25340.48137797  .00006403  00000+0  32868-2 0  9994", "line2": "2 33723  99.1549  60.9133 0098300 348.5061  77.0859 14.13229400635350"}}, "geometry": {"type": "Point", "coordinates": [-130.09071184192317, -53.1247786468651]}}, {"type": "Feature", "properties": {"norad_id": 33724, "name": "FENGYUN 1C DEB", "group": "fengyun-1c-debris", "lat": -36.878952347308164, "lon": 165.78315445027354, "alt_km": 814.6557463466634, "timestamp": "2025-12-07T20:38:14.350589+00:00", "meta": {"OBJECT_NAME": "FENGYUN 1C DEB", "OBJECT_ID": "1999-025DHM", "EPOCH": "2025-12-05T19:22:33.597984", "MEAN_MOTION": 14.19625855, "ECCENTRICITY": 0.00271566, "INCLINATION": 98.6029, "RA_OF_ASC_NODE": 350.3106, "ARG_OF_PERICENTER": 201.9879, "MEAN_ANOMALY": 331.1773, "EPHEMERIS_TYPE": 0, "CLASSIFICATION_TYPE": "U", "NORAD_CAT_ID": 33724, "ELEMENT_SET_NO": 999, "REV_AT_EPOCH": 93863, "BSTAR": 0.0007450869, "MEAN_MOTION_DOT": 1.537e-05, "MEAN_MOTION_DDOT": 0}, "tle": {"line1": "1 33724U 99025DHM 25339.80733331  .00001537  00000+0  74509-3 0  9997", "line2": "2 33724  98.6029 350.3106 0027156 201.9879 331.1773 14.19625855938630"}}, "geometry": {"type": "Point", "coordinates": [165.78315445027354, -36.878952347308164]}}]}